OBJECT_NAME,OBJECT_ID,EPOCH,MEAN_MOTION,ECCENTRICITY,INCLINATION,RA_OF_ASC_NODE,ARG_OF_PERICENTER,MEAN_ANOMALY,EPHEMERIS_TYPE,CLASSIFICATION_TYPE,NORAD_CAT_ID,ELEMENT_SET_NO,REV_AT_EPOCH,BSTAR,MEAN_MOTION_DOT,MEAN_MOTION_DDOT
EUTELSAT HOTBIRD 13F,2022-134A,2026-07-21T08:00:33.863328,1.00272183,.00019581,0.0537,282.5975,81.9197,67.7270,0,U,54048,999,1371,0,.88E-6,0
LDPE-2,2022-144A,2026-07-21T14:12:07.075584,1.00546293,.00025323,5.6794,63.2555,105.6359,219.2277,0,U,54219,999,1218,0,-.12E-6,0
EUTELSAT HOTBIRD 13G,2022-146A,2026-07-21T14:51:10.831104,1.00272094,.00020221,0.0507,229.6006,304.4227,1.1561,0,U,54225,999,781,0,.89E-6,0
ZHONGXING-19,2022-148A,2026-07-21T14:39:38.736000,1.00272303,.00033143,0.0159,75.5955,62.2793,184.5857,0,U,54230,999,1372,0,-.8E-6,0
GALAXY 31 (G-31),2022-153A,2026-07-21T14:12:59.491872,1.00273320,.00013464,0.0048,247.1499,235.3527,269.0859,0,U,54243,999,747,0,.15E-6,0
GALAXY 32 (G-32),2022-153B,2026-07-21T14:21:36.167328,1.00271821,.00014862,0.0094,35.9806,18.2621,9.5143,0,U,54244,999,1348,0,-.172E-5,0
EUTELSAT 10B,2022-157A,2026-07-21T14:50:18.414816,1.00270669,.00018545,0.0602,96.4319,1.5468,73.9147,0,U,54259,999,1337,0,.7E-6,0
GALAXY 35 (G-35),2022-170A,2026-07-21T14:20:58.725888,1.00270363,.00019876,0.0083,293.9220,183.2891,304.2788,0,U,54741,999,1323,0,-.16E-5,0
GALAXY 36 (G-36),2022-170B,2026-07-21T14:22:06.118752,1.00271632,.00027633,0.0210,131.6980,329.3006,324.8799,0,U,54742,999,1311,0,-.183E-5,0
METEOSAT-12 (MTG-I1),2022-170C,2026-07-21T14:47:26.190240,1.00269683,.00041176,0.7316,20.7872,80.9483,59.1060,0,U,54743,999,1332,0,-.7E-7,0
SHIJIAN-23 (SJ-23),2023-002A,2026-07-21T16:29:51.707328,1.00074281,.0003387,3.8037,77.8787,276.4036,317.1522,0,U,55131,999,1285,0,-.359E-5,0
APSTAR-6E,2023-005A,2026-07-20T05:12:42.610176,1.00273697,.00026547,0.0462,230.1058,322.6565,317.3948,0,U,55239,999,1902,0,-.32E-5,0
USA 342,2023-008A,2026-07-19T08:09:31.023360,1.00270942,.0000215,0.0047,62.4879,103.9152,276.9334,0,U,55263,999,1283,0,0,0
ELEKTRO-L 4,2023-016A,2026-07-20T17:02:56.046624,1.00270878,.00016018,0.1071,279.1217,258.4837,182.3803,0,U,55506,999,1267,0,-.59E-6,0
AMAZONAS NEXUS,2023-017A,2026-07-21T12:47:24.955872,1.00270274,.0004527,0.0353,45.9458,44.1354,340.0569,0,U,55508,999,738,0,-.281E-5,0
ZHONGXING-26,2023-023A,2026-07-20T23:59:16.908864,1.00269388,.00034286,0.0595,71.7320,32.1565,319.7928,0,U,55686,999,1256,0,-.354E-5,0
LUCH-5X (OLYMP-K 2),2023-031A,2026-07-21T18:08:41.332416,1.00272181,.0001387,0.0283,95.3907,185.4270,352.8536,0,U,55841,999,1228,0,.35E-6,0
GAOFEN-13 02,2023-036A,2026-07-21T14:55:38.614080,1.00273594,.00035203,1.0299,5.3816,339.2345,326.9583,0,U,55912,999,1243,0,-.216E-5,0
SES-18,2023-038A,2026-07-21T14:18:06.502176,1.00272180,.00009966,0.0623,261.7950,287.6444,221.3342,0,U,55970,999,1244,0,-.99E-6,0
SES-19,2023-038B,2026-07-21T14:08:59.875296,1.00273546,.00018453,0.0425,270.8072,210.6061,255.2742,0,U,55971,999,1243,0,.89E-6,0
INTELSAT 40E (IS-40E),2023-052A,2026-07-21T14:21:36.167328,1.00271402,.0002492,0.0166,91.2911,52.0120,280.4493,0,U,56174,999,1216,0,-.172E-5,0
VIASAT-3 F1,2023-060A,2026-07-20T19:33:00.944928,1.00269886,.00005927,0.0125,41.4415,49.9672,51.4846,0,U,56370,999,1177,0,0,0
ARCTURUS,2023-060B,2026-07-21T14:07:17.600160,1.00591668,.00013757,2.8597,79.5095,134.1671,43.9167,0,U,56371,999,1180,0,-.357E-5,0
GS-1,2023-060C,2026-07-21T15:12:57.999168,1.00265007,.00032842,2.8110,79.4186,278.5775,258.8072,0,U,56372,999,788,0,-.221E-5,0
BEIDOU-3 G4,2023-066A,2026-07-21T15:27:27.394848,1.00270914,.00051012,0.4555,340.7614,183.1913,147.3753,0,U,56564,999,1173,0,-.279E-5,0
ARABSAT-7B (BADR-8),2023-075A,2026-07-21T14:54:55.471968,1.00272883,.00034132,0.0741,31.5147,2.5402,155.0467,0,U,56757,999,1146,0,.146E-5,0
NVS-01 (IRNSS-1J),2023-076A,2026-07-21T15:24:27.682848,1.00275975,.00029523,2.0868,242.7688,18.2288,39.0086,0,U,56759,999,1146,0,-.332E-5,0
NUSANTARA TIGA (SATRIA),2023-086A,2026-07-21T13:46:32.028384,1.00268772,.00021021,0.0362,15.7856,313.7540,322.4169,0,U,57045,999,1010,0,-.234E-5,0
H2SAT (HEINRICH HERTZ),2023-093A,2026-07-21T14:47:41.165952,1.00271996,.00008042,0.0233,108.7707,226.6772,186.5528,0,U,57213,999,1126,0,.4E-7,0
SYRACUSE 4B,2023-093B,2026-07-21T14:45:41.356800,1.00270855,.00000886,0.0233,59.1554,91.2296,3.9557,0,U,57214,999,731,0,0,0
JUPITER 3 (ECHOSTAR 24),2023-108A,2026-07-21T10:23:59.744832,1.00271932,.00011663,0.0144,53.3181,65.1721,241.5078,0,U,57479,999,1098,0,-.149E-5,0
