EUTELSAT HOTBIRD 13F    
1 54048U 22134A   26202.33372527  .00000088  00000+0  00000+0 0  9991
2 54048   0.0537 282.5975 0001958  81.9197  67.7270  1.00272183 13719
LDPE-2                  
1 54219U 22144A   26202.59174856 -.00000012  00000+0  00000+0 0  9993
2 54219   5.6794  63.2555 0002532 105.6359 219.2277  1.00546293 12183
EUTELSAT HOTBIRD 13G    
1 54225U 22146A   26202.61887536  .00000089  00000+0  00000+0 0  9994
2 54225   0.0507 229.6006 0002022 304.4227   1.1561  1.00272094  7810
ZHONGXING-19            
1 54230U 22148A   26202.61086500 -.00000080  00000+0  00000+0 0  9996
2 54230   0.0159  75.5955 0003314  62.2793 184.5857  1.00272303 13726
GALAXY 31 (G-31)        
1 54243U 22153A   26202.59235523  .00000015  00000+0  00000+0 0  9991
2 54243   0.0048 247.1499 0001346 235.3527 269.0859  1.00273320  7474
GALAXY 32 (G-32)        
1 54244U 22153B   26202.59833527 -.00000172  00000+0  00000+0 0  9995
2 54244   0.0094  35.9806 0001486  18.2621   9.5143  1.00271821 13484
EUTELSAT 10B            
1 54259U 22157A   26202.61826869  .00000070  00000+0  00000+0 0  9995
2 54259   0.0602  96.4319 0001854   1.5468  73.9147  1.00270669 13375
GALAXY 35 (G-35)        
1 54741U 22170A   26202.59790192 -.00000160  00000+0  00000+0 0  9993
2 54741   0.0083 293.9220 0001987 183.2891 304.2788  1.00270363 13231
GALAXY 36 (G-36)        
1 54742U 22170B   26202.59868193 -.00000183  00000+0  00000+0 0  9996
2 54742   0.0210 131.6980 0002763 329.3006 324.8799  1.00271632 13116
METEOSAT-12 (MTG-I1)    
1 54743U 22170C   26202.61627535 -.00000007  00000+0  00000+0 0  9998
2 54743   0.7316  20.7872 0004117  80.9483  59.1060  1.00269683 13328
SHIJIAN-23 (SJ-23)      
1 55131U 23002A   26202.68740402 -.00000359  00000+0  00000+0 0  9991
2 55131   3.8037  77.8787 0003387 276.4036 317.1522  1.00074281 12851
APSTAR-6E               
1 55239U 23005A   26201.21715984 -.00000320  00000+0  00000+0 0  9996
2 55239   0.0462 230.1058 0002654 322.6565 317.3948  1.00273697 19025
USA 342                 
1 55263U 23008A   26200.33994240  .00000000  00000+0  00000+0 0  9996
2 55263   0.0047  62.4879 0000215 103.9152 276.9334  1.00270942 12832
ELEKTRO-L 4             
1 55506U 23016A   26201.71037091 -.00000059  00000+0  00000+0 0  9995
2 55506   0.1071 279.1217 0001601 258.4837 182.3803  1.00270878 12670
AMAZONAS NEXUS          
1 55508U 23017A   26202.53292773 -.00000281  00000+0  00000+0 0  9996
2 55508   0.0353  45.9458 0004527  44.1354 340.0569  1.00270274  7388
ZHONGXING-26            
1 55686U 23023A   26201.99950126 -.00000354  00000+0  00000+0 0  9993
2 55686   0.0595  71.7320 0003428  32.1565 319.7928  1.00269388 12560
LUCH-5X (OLYMP-K 2)     
1 55841U 23031A   26202.75603394  .00000035  00000+0  00000+0 0  9997
2 55841   0.0283  95.3907 0001387 185.4270 352.8536  1.00272181 12284
GAOFEN-13 02            
1 55912U 23036A   26202.62197470 -.00000216  00000+0  00000+0 0  9992
2 55912   1.0299   5.3816 0003520 339.2345 326.9583  1.00273594 12434
SES-18                  
1 55970U 23038A   26202.59590859 -.00000099  00000+0  00000+0 0  9991
2 55970   0.0623 261.7950 0000996 287.6444 221.3342  1.00272180 12447
SES-19                  
1 55971U 23038B   26202.58958189  .00000089  00000+0  00000+0 0  9993
2 55971   0.0425 270.8072 0001845 210.6061 255.2742  1.00273546 12435
INTELSAT 40E (IS-40E)   
1 56174U 23052A   26202.59833527 -.00000172  00000+0  00000+0 0  9998
2 56174   0.0166  91.2911 0002492  52.0120 280.4493  1.00271402 12165
VIASAT-3 F1             
1 56370U 23060A   26201.81459427  .00000000  00000+0  00000+0 0  9991
2 56370   0.0125  41.4415 0000592  49.9672  51.4846  1.00269886 11777
ARCTURUS                
1 56371U 23060B   26202.58839815 -.00000357  00000+0  00000+0 0  9996
2 56371   2.8597  79.5095 0001375 134.1671  43.9167  1.00591668 11805
GS-1                    
1 56372U 23060C   26202.63400462 -.00000221  00000+0  00000+0 0  9995
2 56372   2.8110  79.4186 0003284 278.5775 258.8072  1.00265007  7886
BEIDOU-3 G4             
1 56564U 23066A   26202.64406707 -.00000279  00000+0  00000+0 0  9996
2 56564   0.4555 340.7614 0005101 183.1913 147.3753  1.00270914 11731
ARABSAT-7B (BADR-8)     
1 56757U 23075A   26202.62147537  .00000146  00000+0  00000+0 0  9993
2 56757   0.0741  31.5147 0003413   2.5402 155.0467  1.00272883 11460
NVS-01 (IRNSS-1J)       
1 56759U 23076A   26202.64198707 -.00000332  00000+0  00000+0 0  9991
2 56759   2.0868 242.7688 0002952  18.2288  39.0086  1.00275975 11466
NUSANTARA TIGA (SATRIA) 
1 57045U 23086A   26202.57398181 -.00000234  00000+0  00000+0 0  9992
2 57045   0.0362  15.7856 0002102 313.7540 322.4169  1.00268772 10106
H2SAT (HEINRICH HERTZ)  
1 57213U 23093A   26202.61644868  .00000004  00000+0  00000+0 0  9992
2 57213   0.0233 108.7707 0000804 226.6772 186.5528  1.00271996 11262
SYRACUSE 4B             
1 57214U 23093B   26202.61506200  .00000000  00000+0  00000+0 0  9996
2 57214   0.0233  59.1554 0000088  91.2296   3.9557  1.00270855  7311
JUPITER 3 (ECHOSTAR 24) 
1 57479U 23108A   26202.43333038 -.00000149  00000+0  00000+0 0  9998
2 57479   0.0144  53.3181 0001166  65.1721 241.5078  1.00271932 10980
